0 RUBIN 4/SL-8
1 27940U 03042B   13283.61553939  .00000393  00000-0  83884-4 0   866
2 27940 097.8070 101.5470 0013901 210.7501 198.4469 14.63732891536046
0 RUBIN 4/SL-8
1 27940U 03042B   13286.48730869  .00000410  00000-0  87103-4 0   883
2 27940 097.8068 104.2686 0014118 201.4528 211.2581 14.63735404536467
0 RUBIN 4/SL-8
1 27940U 03042B   13287.51447376  .00000476  00000-0  99769-4 0   890
2 27940 097.8068 105.2420 0014178 198.1909 223.8557 14.63736717536612
0 RUBIN 4/SL-8
1 27940U 03042B   13288.53809858  .00000601  00000-0  12381-3 0   906
2 27940 097.8068 106.2120 0014230 195.0012 217.7439 14.63738290536765
0 RUBIN 4/SL-8
1 27940U 03042B   13289.56127630  .00000548  00000-0  11352-3 0   919
2 27940 097.8069 107.1816 0014328 191.6926 209.3996 14.63740130536910
0 RUBIN 4/SL-8
1 27940U 03042B   13290.67330351  .00000551  00000-0  11423-3 0   923
2 27940 097.8071 108.2354 0014387 188.2303 309.1247 14.63741351537070
0 RUBIN 4/SL-8
1 27940U 03042B   13291.69742118  .00000564  00000-0  11670-3 0   933
2 27940 097.8072 109.2060 0014470 185.0281 305.6374 14.63742114537226
0 RUBIN 4/SL-8
1 27940U 03042B   13292.79160936  .00000633  00000-0  12977-3 0   946
2 27940 097.8073 110.2430 0014570 181.5832 311.4098 14.63743518537388
0 RUBIN 4/SL-8
1 27940U 03042B   13293.81795226  .00000669  00000-0  13682-3 0   950
2 27940 097.8073 111.2156 0014638 178.4174 319.6144 14.63744924537534
0 RUBIN 4/SL-8
1 27940U 03042B   13294.84218278  .00000704  00000-0  14346-3 0   960
2 27940 097.8073 112.1863 0014726 175.2363 316.7128 14.63746860537689
0 RUBIN 4/SL-8
1 27940U 03042B   13296.14166994  .00000656  00000-0  13426-3 0   977
2 27940 097.8072 113.4179 0014774 171.2775 324.1831 14.63748651537873
